{
  "type": "FeatureCollection",
  "name": "Villaguay territorial reference",
  "crs": {
    "type": "name",
    "properties": {
      "name": "urn:ogc:def:crs:OGC:1.3:CRS84"
    }
  },
  "features": [
    {
      "type": "Feature",
      "properties": {
        "adminCode": "30113",
        "adminName": "Villaguay",
        "province": "Entre Ríos",
        "countryCode": "AR",
        "precision": "coarse-territorial-reference"
      },
      "geometry": {
        "type": "Polygon",
        "coordinates": [
          [
            [-58.71374684772456, -31.842243809982687],
            [-58.706895886374426, -31.97226374982917],
            [-59.060762933503135, -32.037855898587544],
            [-59.31752505019081, -31.914822104762663],
            [-59.61598867074886, -31.861649771153804],
            [-59.59037203265705, -31.480128574529644],
            [-59.248717568804665, -31.25773625950864],
            [-58.683066455591344, -31.26549864397709],
            [-58.67978990885867, -31.265110524753666],
            [-58.71374684772456, -31.842243809982687]
          ]
        ]
      }
    }
  ]
}
